{"fetched_at":"2026-06-09T21:47:50Z","count":3764,"tles":[{"name":"SL-3 R/B","line1":"1 13403U 82079B   26160.18083950  .00003868  00000+0  14959-3 0  9991","line2":"2 13403  81.1459  84.9562 0023079 213.1053 146.8738 15.25722572391649","category":"Other"},{"name":"SL-8 R/B","line1":"1 08459U 75112B   26160.11122780  .00000156  00000+0  59816-4 0  9993","line2":"2 08459  74.0598 210.7308 0016841 278.6230  81.3016 14.38242294645014","category":"Other"},{"name":"SL-8 R/B","line1":"1 11574U 79089B   26160.09021369  .00000197  00000+0  67387-4 0  9997","line2":"2 11574  74.0695 281.8459 0014848  68.8868 291.3874 14.42400279449281","category":"Other"},{"name":"SL-3 R/B","line1":"1 00877U 64053B   26160.11811418  .00000100  00000+0  43631-4 0  9991","line2":"2 00877  65.0774  63.1719 0081156 263.6420  95.5433 14.61423057280152","category":"Other"},{"name":"SL-14 R/B","line1":"1 13553U 82092B   26160.12093147  .00000366  00000+0  38283-4 0  9992","line2":"2 13553  82.5687  55.8510 0020375   2.4296 114.7569 14.86741981342516","category":"Other"},{"name":"ISIS 1","line1":"1 03669U 69009A   26158.63271488  .00000088  00000+0  65788-4 0  9992","line2":"2 03669  88.4419 145.4497 1705984 267.5382  73.0235 11.30432624358698","category":"Other"},{"name":"ASTEX 1","line1":"1 05560U 71089A   26160.07178794  .00000377  00000+0  95710-4 0  9991","line2":"2 05560  92.6999 181.2421 0017336 130.2632 230.0093 14.50845046875552","category":"Other"},{"name":"THOR AGENA D R/B","line1":"1 00733U 64002A   26160.06349352  .00000174  00000+0  79193-4 0  9996","line2":"2 00733  99.1156 178.3572 0032727 354.4611   5.6205 14.34062449251399","category":"Other"},{"name":"SL-3 R/B","line1":"1 05118U 71028B   26160.14896216  .00045480  00000+0  39152-3 0  9998","line2":"2 05118  81.2329 298.3966 0013710 310.0578  49.9476 15.68979174  2986","category":"Other"},{"name":"SL-3 R/B","line1":"1 12465U 81046B   26160.15386683  .00009797  00000+0  21260-3 0  9997","line2":"2 12465  81.2302 179.7449 0019208  64.2548 296.0676 15.44030749452538","category":"Other"},{"name":"COSMOS 1536","line1":"1 14699U 84013A   26160.09169461  .00004879  00000+0  19404-3 0  9994","line2":"2 14699  82.5453  16.9080 0013178 326.9669  33.0744 15.24967462286545","category":"Other"},{"name":"SL-14 R/B","line1":"1 11267U 79011B   26160.06063911  .00000428  00000+0  39561-4 0  9997","line2":"2 11267  82.5242   9.8670 0017421 110.2660 250.0434 14.92006633542400","category":"Other"},{"name":"SL-8 R/B","line1":"1 15483U 85006B   26160.07421068  .00000212  00000+0  78849-4 0  9997","line2":"2 15483  74.0456  92.9928 0018576 341.5590  29.8293 14.37831347167167","category":"Other"},{"name":"SL-8 R/B","line1":"1 03230U 68040B   26160.19974623  .00002631  00000+0  19326-3 0  9997","line2":"2 03230  74.0296 126.6254 0026031 281.0709  78.7552 15.03776962103760","category":"Other"},{"name":"SL-3 R/B","line1":"1 10114U 77057B   26160.13583189  .00009689  00000+0  18901-3 0  9999","line2":"2 10114  97.5844 336.2883 0005788 320.6343  39.4485 15.47715353682468","category":"Other"},{"name":"SL-3 R/B","line1":"1 13068U 82013B   26160.14029949  .00002862  00000+0  12090-3 0  9997","line2":"2 13068  81.1745  53.5024 0020867 228.9632 130.9797 15.22736081418262","category":"Other"},{"name":"SERT 2","line1":"1 04327U 70009A   26160.07191588 -.00000009  00000+0  43897-4 0  9990","line2":"2 04327  99.2841  98.2206 0004075 298.8019  76.9720 13.58738621792307","category":"Other"},{"name":"OAO 3 (COPERNICUS)","line1":"1 06153U 72065A   26158.68268684  .00000325  00000+0  71014-4 0  9991","line2":"2 06153  35.0041 144.5608 0006656 182.1687 344.1725 14.60055226859351","category":"Other"},{"name":"SL-14 R/B","line1":"1 11672U 80005B   26160.13380515  .00000421  00000+0  39914-4 0  9997","line2":"2 11672  82.5146 220.4793 0014794 213.6819 146.3462 14.91022388490116","category":"Other"},{"name":"SL-3 R/B","line1":"1 12904U 81103B   26160.10034563  .00003697  00000+0  15952-3 0  9995","line2":"2 12904  81.1578 106.1325 0012414 344.9774  15.1087 15.22216738987133","category":"Other"},{"name":"SL-3 R/B","line1":"1 14208U 83075B   26160.07899191  .00008498  00000+0  21155-3 0  9992","line2":"2 14208  97.6108 168.2529 0018837 260.7657  99.1458 15.40345989344219","category":"Other"},{"name":"SEASAT 1","line1":"1 10967U 78064A   26160.14687461  .00000263  00000+0  11179-3 0  9992","line2":"2 10967 108.0164 317.4114 0002040 241.1512 118.9429 14.46237135519733","category":"Other"},{"name":"SL-8 R/B","line1":"1 12139U 81003B   26160.08925795  .00012429  00000+0  30699-3 0  9995","line2":"2 12139  82.9375 205.2945 0250361 219.5402 138.7338 15.13979039328495","category":"Other"},{"name":"SL-14 R/B","line1":"1 14820U 84027B   26160.06757041  .00000403  00000+0  43181-4 0  9998","line2":"2 14820  82.5407 159.3314 0018836  35.2423 325.0035 14.86053453261202","category":"Other"},{"name":"OAO 2","line1":"1 03597U 68110A   26160.19018130  .00000167  00000+0  50115-4 0  9997","line2":"2 03597  34.9927 114.3305 0005942 215.7747 144.2546 14.47348648 32369","category":"Other"}]}