OBJECT_NAME,OBJECT_ID,EPOCH,MEAN_MOTION,ECCENTRICITY,INCLINATION,RA_OF_ASC_NODE,ARG_OF_PERICENTER,MEAN_ANOMALY,EPHEMERIS_TYPE,CLASSIFICATION_TYPE,NORAD_CAT_ID,ELEMENT_SET_NO,REV_AT_EPOCH,BSTAR,MEAN_MOTION_DOT,MEAN_MOTION_DDOT
THOR AGENA D R/B,1964-002A,2026-06-09T01:31:25.840128,14.34062449,.0032727,99.1156,178.3572,354.4611,5.6205,0,U,733,999,25139,.79193E-4,.174E-5,0
SL-3 R/B,1964-053B,2026-06-09T02:50:05.065152,14.61423057,.0081156,65.0774,63.1719,263.6420,95.5433,0,U,877,999,28015,.43631E-4,.1E-5,0
SL-8 R/B,1968-040B,2026-06-09T04:47:38.074272,15.03776962,.0026031,74.0296,126.6254,281.0709,78.7552,0,U,3230,999,10376,.19326E-3,.2631E-4,0
OAO 2,1968-110A,2026-06-09T04:33:51.664320,14.47348648,.0005942,34.9927,114.3305,215.7747,144.2546,0,U,3597,999,3236,.50115E-4,.167E-5,0
ISIS 1,1969-009A,2026-06-07T15:11:06.565632,11.30432624,.17059844,88.4419,145.4497,267.5382,73.0235,0,U,3669,999,35869,.65787576E-4,.88E-6,0
SERT 2,1970-009A,2026-06-09T01:43:33.532032,13.58738621,.0004075,99.2841,98.2206,298.8019,76.9720,0,U,4327,999,79230,.43897E-4,-.9E-7,0
SL-3 R/B,1971-028B,2026-06-09T03:34:30.330624,15.68979174,.001371,81.2329,298.3966,310.0578,49.9476,0,U,5118,999,298,.39152E-3,.4548E-3,0
ASTEX 1,1971-089A,2026-06-09T01:43:22.478016,14.50845046,.0017336,92.6999,181.2421,130.2632,230.0093,0,U,5560,999,87555,.9571E-4,.377E-5,0
OAO 3 (COPERNICUS),1972-065A,2026-06-07T16:23:04.142976,14.60055226,.00066566,35.0041,144.5608,182.1687,344.1725,0,U,6153,999,85935,.71014291E-4,.325E-5,0
SL-8 R/B,1975-112B,2026-06-09T02:40:10.081920,14.38242294,.0016841,74.0598,210.7308,278.6230,81.3016,0,U,8459,999,64501,.59816E-4,.156E-5,0
SL-3 R/B,1977-057B,2026-06-09T03:15:35.875296,15.47715353,.0005788,97.5844,336.2883,320.6343,39.4485,0,U,10114,999,68246,.18901E-3,.9689E-4,0
SEASAT 1,1978-064A,2026-06-09T03:31:29.966304,14.46237135,.000204,108.0164,317.4114,241.1512,118.9429,0,U,10967,999,51973,.11179E-3,.263E-5,0
SL-14 R/B,1979-011B,2026-06-09T01:27:19.219104,14.92006633,.0017421,82.5242,9.8670,110.2660,250.0434,0,U,11267,999,54240,.39561E-4,.428E-5,0
SL-8 R/B,1979-089B,2026-06-09T02:09:54.462816,14.42400279,.0014848,74.0695,281.8459,68.8868,291.3874,0,U,11574,999,44928,.67387E-4,.197E-5,0
SL-14 R/B,1980-005B,2026-06-09T03:12:40.764960,14.91022388,.0014794,82.5146,220.4793,213.6819,146.3462,0,U,11672,999,49011,.39914E-4,.421E-5,0
SL-8 R/B,1981-003B,2026-06-09T02:08:31.886880,15.13979039,.0250361,82.9375,205.2945,219.5402,138.7338,0,U,12139,999,32849,.30699E-3,.12429E-3,0
SL-3 R/B,1981-046B,2026-06-09T03:41:34.094112,15.44030749,.0019208,81.2302,179.7449,64.2548,296.0676,0,U,12465,999,45253,.2126E-3,.9797E-4,0
SL-3 R/B,1981-103B,2026-06-09T02:24:29.862432,15.22216738,.0012414,81.1578,106.1325,344.9774,15.1087,0,U,12904,999,98713,.15952E-3,.3697E-4,0
SL-3 R/B,1982-013B,2026-06-09T03:22:01.875936,15.22736081,.0020867,81.1745,53.5024,228.9632,130.9797,0,U,13068,999,41826,.1209E-3,.2862E-4,0
SL-3 R/B,1982-079B,2026-06-09T04:20:24.532800,15.25722572,.0023079,81.1459,84.9562,213.1053,146.8738,0,U,13403,999,39164,.14959E-3,.3868E-4,0
SL-14 R/B,1982-092B,2026-06-09T02:54:08.479008,14.86741981,.0020375,82.5687,55.8510,2.4296,114.7569,0,U,13553,999,34251,.38283E-4,.366E-5,0
SL-3 R/B,1983-075B,2026-06-09T01:53:44.901024,15.40345989,.0018837,97.6108,168.2529,260.7657,99.1458,0,U,14208,999,34421,.21155E-3,.8498E-4,0
COSMOS 1536,1984-013A,2026-06-09T02:12:02.414304,15.24967462,.0013178,82.5453,16.9080,326.9669,33.0744,0,U,14699,999,28654,.19404E-3,.4879E-4,0
SL-14 R/B,1984-027B,2026-06-09T01:37:18.083424,14.86053453,.0018836,82.5407,159.3314,35.2423,325.0035,0,U,14820,999,26120,.43181E-4,.403E-5,0
SL-8 R/B,1985-006B,2026-06-09T01:46:51.802752,14.37831347,.0018576,74.0456,92.9928,341.5590,29.8293,0,U,15483,999,16716,.78849E-4,.212E-5,0
